{"type": "FeatureCollection", "features": [ {"type": "Feature", "properties": {"norad_id": 66631, "name": "STARLINK-35965", "group": "last-30-days", "lat": -25.986087413604483, "lon": 153.5314815953827, "alt_km": 422.0524167498679, "timestamp": "2025-12-15T07:02:36.373973+00:00", "meta": {"OBJECT_NAME": "STARLINK-35965", "OBJECT_ID": "2025-271Q", "EPOCH": "2025-12-14T20:00:06.000192", "MEAN_MOTION": 15.49285097, "ECCENTRICITY": 9.011e-05, "INCLINATION": 53.1597, "RA_OF_ASC_NODE": 177.1667, "ARG_OF_PERICENTER": 34.379, "MEAN_ANOMALY": 244.9976, "EPHEMERIS_TYPE": 0, "CLASSIFICATION_TYPE": "U", "NORAD_CAT_ID": 66631, "ELEMENT_SET_NO": 999, "REV_AT_EPOCH": 458, "BSTAR": 0.00071837605, "MEAN_MOTION_DOT": 0.00039674, "MEAN_MOTION_DDOT": 0}, "tle": {"line1": "1 66631U 25271Q   25348.83340278  .00039674  00000+0  71838-3 0  9994", "line2": "2 66631  53.1597 177.1667 0000901  34.3790 244.9976 15.49285097  4583"}}, "geometry": {"type": "Point", "coordinates": [153.5314815953827, -25.986087413604483]}}, {"type": "Feature", "properties": {"norad_id": 66632, "name": "STARLINK-35973", "group": "last-30-days", "lat": -38.11127734924083, "lon": 138.97918610622511, "alt_km": 444.0048159565049, "timestamp": "2025-12-15T07:02:36.373983+00:00", "meta": {"OBJECT_NAME": "STARLINK-35973", "OBJECT_ID": "2025-271R", "EPOCH": "2025-12-14T20:00:06.000192", "MEAN_MOTION": 15.44424366, "ECCENTRICITY": 0.00014097, "INCLINATION": 53.16, "RA_OF_ASC_NODE": 177.1818, "ARG_OF_PERICENTER": 98.1578, "MEAN_ANOMALY": 173.682, "EPHEMERIS_TYPE": 0, "CLASSIFICATION_TYPE": "U", "NORAD_CAT_ID": 66632, "ELEMENT_SET_NO": 999, "REV_AT_EPOCH": 452, "BSTAR": -0.047558305, "MEAN_MOTION_DOT": -0.0199325, "MEAN_MOTION_DDOT": 0}, "tle": {"line1": "1 66632U 25271R   25348.83340278 -.01993250  00000+0 -47558-1 0  9997", "line2": "2 66632  53.1600 177.1818 0001409  98.1578 173.6820 15.44424366  4522"}}, "geometry": {"type": "Point", "coordinates": [138.97918610622511, -38.11127734924083]}}, {"type": "Feature", "properties": {"norad_id": 66633, "name": "STARLINK-35948", "group": "last-30-days", "lat": -36.90072233008258, "lon": 140.73807577231614, "alt_km": 443.91465034963494, "timestamp": "2025-12-15T07:02:36.373993+00:00", "meta": {"OBJECT_NAME": "STARLINK-35948", "OBJECT_ID": "2025-271S", "EPOCH": "2025-12-14T20:00:06.000192", "MEAN_MOTION": 15.44419261, "ECCENTRICITY": 0.00014051, "INCLINATION": 53.1598, "RA_OF_ASC_NODE": 177.1771, "ARG_OF_PERICENTER": 90.3594, "MEAN_ANOMALY": 183.3545, "EPHEMERIS_TYPE": 0, "CLASSIFICATION_TYPE": "U", "NORAD_CAT_ID": 66633, "ELEMENT_SET_NO": 999, "REV_AT_EPOCH": 458, "BSTAR": -0.0478928, "MEAN_MOTION_DOT": -0.02005438, "MEAN_MOTION_DDOT": 0}, "tle": {"line1": "1 66633U 25271S   25348.83340278 -.02005438  00000+0 -47893-1 0  9993", "line2": "2 66633  53.1598 177.1771 0001405  90.3594 183.3545 15.44419261  4581"}}, "geometry": {"type": "Point", "coordinates": [140.73807577231614, -36.90072233008258]}}, {"type": "Feature", "properties": {"norad_id": 66634, "name": "STARLINK-35967", "group": "last-30-days", "lat": -26.144285146989002, "lon": 153.3729259357635, "alt_km": 434.04763066697615, "timestamp": "2025-12-15T07:02:36.374003+00:00", "meta": {"OBJECT_NAME": "STARLINK-35967", "OBJECT_ID": "2025-271T", "EPOCH": "2025-12-14T20:00:06.000192", "MEAN_MOTION": 15.47527421, "ECCENTRICITY": 0.00013299, "INCLINATION": 53.16, "RA_OF_ASC_NODE": 177.1564, "ARG_OF_PERICENTER": 90.3899, "MEAN_ANOMALY": 193.4509, "EPHEMERIS_TYPE": 0, "CLASSIFICATION_TYPE": "U", "NORAD_CAT_ID": 66634, "ELEMENT_SET_NO": 999, "REV_AT_EPOCH": 451, "BSTAR": -0.044377081, "MEAN_MOTION_DOT": -0.02062637, "MEAN_MOTION_DDOT": 0}, "tle": {"line1": "1 66634U 25271T   25348.83340278 -.02062637  00000+0 -44377-1 0  9992", "line2": "2 66634  53.1600 177.1564 0001329  90.3899 193.4509 15.47527421  4515"}}, "geometry": {"type": "Point", "coordinates": [153.3729259357635, -26.144285146989002]}}, {"type": "Feature", "properties": {"norad_id": 66635, "name": "STARLINK-35955", "group": "last-30-days", "lat": -20.173771672040758, "lon": 158.9601210134321, "alt_km": 421.5718762160004, "timestamp": "2025-12-15T07:02:36.374014+00:00", "meta": {"OBJECT_NAME": "STARLINK-35955", "OBJECT_ID": "2025-271U", "EPOCH": "2025-12-14T20:00:06.000192", "MEAN_MOTION": 15.4929696, "ECCENTRICITY": 3.657e-05, "INCLINATION": 53.1595, "RA_OF_ASC_NODE": 177.15, "ARG_OF_PERICENTER": 22.7283, "MEAN_ANOMALY": 264.2865, "EPHEMERIS_TYPE": 0, "CLASSIFICATION_TYPE": "U", "NORAD_CAT_ID": 66635, "ELEMENT_SET_NO": 999, "REV_AT_EPOCH": 458, "BSTAR": 0.0010129876, "MEAN_MOTION_DOT": 0.00056273, "MEAN_MOTION_DDOT": 0}, "tle": {"line1": "1 66635U 25271U   25348.83340278  .00056273  00000+0  10130-2 0  9999", "line2": "2 66635  53.1595 177.1500 0000365  22.7283 264.2865 15.49296960  4586"}}, "geometry": {"type": "Point", "coordinates": [158.9601210134321, -20.173771672040758]}}, {"type": "Feature", "properties": {"norad_id": 66636, "name": "STARLINK-35968", "group": "last-30-days", "lat": -19.001087449796223, "lon": 159.98447156097453, "alt_km": 424.37711584692806, "timestamp": "2025-12-15T07:02:36.374024+00:00", "meta": {"OBJECT_NAME": "STARLINK-35968", "OBJECT_ID": "2025-271V", "EPOCH": "2025-12-14T20:00:06.000192", "MEAN_MOTION": 15.49688559, "ECCENTRICITY": 8.551e-05, "INCLINATION": 53.1596, "RA_OF_ASC_NODE": 177.1457, "ARG_OF_PERICENTER": 108.1543, "MEAN_ANOMALY": 180.737, "EPHEMERIS_TYPE": 0, "CLASSIFICATION_TYPE": "U", "NORAD_CAT_ID": 66636, "ELEMENT_SET_NO": 999, "REV_AT_EPOCH": 458, "BSTAR": -0.022555228, "MEAN_MOTION_DOT": -0.01161966, "MEAN_MOTION_DDOT": 0}, "tle": {"line1": "1 66636U 25271V   25348.83340278 -.01161966  00000+0 -22555-1 0  9992", "line2": "2 66636  53.1596 177.1457 0000855 108.1543 180.7370 15.49688559  4583"}}, "geometry": {"type": "Point", "coordinates": [159.98447156097453, -19.001087449796223]}}, {"type": "Feature", "properties": {"norad_id": 66637, "name": "STARLINK-35953", "group": "last-30-days", "lat": -17.217107758311364, "lon": 161.507101363353, "alt_km": 421.21310933218865, "timestamp": "2025-12-15T07:02:36.374036+00:00", "meta": {"OBJECT_NAME": "STARLINK-35953", "OBJECT_ID": "2025-271W", "EPOCH": "2025-12-14T20:00:06.000192", "MEAN_MOTION": 15.49285388, "ECCENTRICITY": 9.846e-05, "INCLINATION": 53.1596, "RA_OF_ASC_NODE": 177.1416, "ARG_OF_PERICENTER": 37.0071, "MEAN_ANOMALY": 253.8694, "EPHEMERIS_TYPE": 0, "CLASSIFICATION_TYPE": "U", "NORAD_CAT_ID": 66637, "ELEMENT_SET_NO": 999, "REV_AT_EPOCH": 458, "BSTAR": 0.00071257125, "MEAN_MOTION_DOT": 0.00039349, "MEAN_MOTION_DDOT": 0}, "tle": {"line1": "1 66637U 25271W   25348.83340278  .00039349  00000+0  71257-3 0  9994", "line2": "2 66637  53.1596 177.1416 0000984  37.0071 253.8694 15.49285388  4582"}}, "geometry": {"type": "Point", "coordinates": [161.507101363353, -17.217107758311364]}}, {"type": "Feature", "properties": {"norad_id": 66638, "name": "STARLINK-35972", "group": "last-30-days", "lat": -15.722897671187791, "lon": 162.75303428852382, "alt_km": 421.2613029610193, "timestamp": "2025-12-15T07:02:36.374046+00:00", "meta": {"OBJECT_NAME": "STARLINK-35972", "OBJECT_ID": "2025-271X", "EPOCH": "2025-12-14T20:00:06.000192", "MEAN_MOTION": 15.49285484, "ECCENTRICITY": 7.117e-05, "INCLINATION": 53.1597, "RA_OF_ASC_NODE": 177.1381, "ARG_OF_PERICENTER": 50.3419, "MEAN_ANOMALY": 242.4514, "EPHEMERIS_TYPE": 0, "CLASSIFICATION_TYPE": "U", "NORAD_CAT_ID": 66638, "ELEMENT_SET_NO": 999, "REV_AT_EPOCH": 458, "BSTAR": 0.00064727914, "MEAN_MOTION_DOT": 0.00035685, "MEAN_MOTION_DDOT": 0}, "tle": {"line1": "1 66638U 25271X   25348.83340278  .00035685  00000+0  64728-3 0  9999", "line2": "2 66638  53.1597 177.1381 0000711  50.3419 242.4514 15.49285484  4589"}}, "geometry": {"type": "Point", "coordinates": [162.75303428852382, -15.722897671187791]}}, {"type": "Feature", "properties": {"norad_id": 66639, "name": "STARLINK-35908", "group": "last-30-days", "lat": -14.199447695947203, "lon": 163.9976026066478, "alt_km": 421.2611028987476, "timestamp": "2025-12-15T07:02:36.374056+00:00", "meta": {"OBJECT_NAME": "STARLINK-35908", "OBJECT_ID": "2025-271Y", "EPOCH": "2025-12-14T20:00:06.000192", "MEAN_MOTION": 15.49264229, "ECCENTRICITY": 6.592e-05, "INCLINATION": 53.1595, "RA_OF_ASC_NODE": 177.1335, "ARG_OF_PERICENTER": 61.7687, "MEAN_ANOMALY": 233.005, "EPHEMERIS_TYPE": 0, "CLASSIFICATION_TYPE": "U", "NORAD_CAT_ID": 66639, "ELEMENT_SET_NO": 999, "REV_AT_EPOCH": 458, "BSTAR": 0.00062158864, "MEAN_MOTION_DOT": 0.00034219, "MEAN_MOTION_DDOT": 0}, "tle": {"line1": "1 66639U 25271Y   25348.83340278  .00034219  00000+0  62159-3 0  9998", "line2": "2 66639  53.1595 177.1335 0000659  61.7687 233.0050 15.49264229  4586"}}, "geometry": {"type": "Point", "coordinates": [163.9976026066478, -14.199447695947203]}}, {"type": "Feature", "properties": {"norad_id": 66640, "name": "STARLINK-35921", "group": "last-30-days", "lat": -12.715126456972026, "lon": 165.19004869661015, "alt_km": 421.12527152882467, "timestamp": "2025-12-15T07:02:36.374066+00:00", "meta": {"OBJECT_NAME": "STARLINK-35921", "OBJECT_ID": "2025-271Z", "EPOCH": "2025-12-14T20:00:06.000192", "MEAN_MOTION": 15.49285605, "ECCENTRICITY": 0.000122, "INCLINATION": 53.1596, "RA_OF_ASC_NODE": 177.1299, "ARG_OF_PERICENTER": 73.791, "MEAN_ANOMALY": 222.8376, "EPHEMERIS_TYPE": 0, "CLASSIFICATION_TYPE": "U", "NORAD_CAT_ID": 66640, "ELEMENT_SET_NO": 999, "REV_AT_EPOCH": 458, "BSTAR": 0.00068544869, "MEAN_MOTION_DOT": 0.00037827, "MEAN_MOTION_DDOT": 0}, "tle": {"line1": "1 66640U 25271Z   25348.83340278  .00037827  00000+0  68545-3 0  9993", "line2": "2 66640  53.1596 177.1299 0001220  73.7910 222.8376 15.49285605  4583"}}, "geometry": {"type": "Point", "coordinates": [165.19004869661015, -12.715126456972026]}}]}